STARLING 4              
1 57386U 23100A   26066.02836485 -.00000009  00000+0  55676-5 0  9994
2 57386  99.5115  59.9711 0007803  83.0949 277.1159 15.06148396144525
STARLINK-34529          
1 64936U 25158E   26068.62396019  .00004976  00000+0  34875-3 0  9992
2 64936  97.6026 293.9861 0002377  80.3711 279.7784 15.05656113 35349
